[{"OBJECT_NAME":"STARLINK-4331","OBJECT_ID":"2022-077D","EPOCH":"2026-03-09T22:56:43.694592","MEAN_MOTION":15.05646487,"ECCENTRICITY":0.00018087,"INCLINATION":97.6022,"RA_OF_ASC_NODE":251.581,"ARG_OF_PERICENTER":88.4059,"MEAN_ANOMALY":271.7375,"EPHEMERIS_TYPE":0,"CLASSIFICATION_TYPE":"U","NORAD_CAT_ID":53046,"ELEMENT_SET_NO":999,"REV_AT_EPOCH":20103,"BSTAR":7.98898e-7,"MEAN_MOTION_DOT":-4.9e-7,"MEAN_MOTION_DDOT":0},{"OBJECT_NAME":"CHUANGXIN 16A (CX-16A)","OBJECT_ID":"2022-102A","EPOCH":"2026-03-09T19:59:28.991616","MEAN_MOTION":15.05552649,"ECCENTRICITY":0.0005063,"INCLINATION":28.9941,"RA_OF_ASC_NODE":256.1289,"ARG_OF_PERICENTER":43.7318,"MEAN_ANOMALY":316.3682,"EPHEMERIS_TYPE":0,"CLASSIFICATION_TYPE":"U","NORAD_CAT_ID":53586,"ELEMENT_SET_NO":999,"REV_AT_EPOCH":19453,"BSTAR":0.00020134,"MEAN_MOTION_DOT":3.128e-5,"MEAN_MOTION_DDOT":0}]
